ONEWEB-0578             
1 56067U 23043X   24235.62454307  .00000129  00000+0  28105-3 0  9993
2 56067  87.9325  16.0766 0001967  94.9416 265.1943 13.21823484 70577
ONEWEB-0579             
1 56068U 23043Y   24235.38800186  .00000061  00000+0  11568-3 0  9997
2 56068  87.9322  16.1190 0001379  95.8741 264.2550 13.21825274 70556
ONEWEB-0581             
1 56069U 23043Z   24235.39281536 -.00000016  00000+0 -76479-4 0  9996
2 56069  87.9154   0.9671 0001636  81.0009 279.1307 13.16596100 71615
ONEWEB-0609             
1 56070U 23043AA  24235.43145691  .00000379  00000+0  97283-3 0  9999
2 56070  87.9049  31.2950 0001711  96.2404 263.8921 13.15547523 69161
ONEWEB-0613             
1 56071U 23043AB  24235.50276919  .00000130  00000+0  31055-3 0  9996
2 56071  87.9053  31.2796 0001420  96.3996 263.7296 13.15547830 69175
ONEWEB-0630             
1 56072U 23043AC  24235.49800917  .00000126  00000+0  30129-3 0  9992
2 56072  87.9049  31.2691 0001440 101.6336 258.4956 13.15548206 69166
ONEWEB-0632             
1 56073U 23043AD  24235.49325475  .00000164  00000+0  40170-3 0  9993
2 56073  87.9049  31.2889 0001587  81.2247 278.9063 13.15549300 69164
ONEWEB-0633             
1 56074U 23043AE  24235.48690880  .00000122  00000+0  28923-3 0  9994
2 56074  87.9047  31.2693 0001472 111.3197 248.8091 13.15549286 69146
